[{"OBJECT_NAME":"SITRO-AIS 26","OBJECT_ID":"2024-039S","EPOCH":"2026-03-09T23:26:14.805600","MEAN_MOTION":14.92446154,"ECCENTRICITY":0.01456696,"INCLINATION":95.3934,"RA_OF_ASC_NODE":166.8629,"ARG_OF_PERICENTER":315.8086,"MEAN_ANOMALY":43.1576,"EPHEMERIS_TYPE":0,"CLASSIFICATION_TYPE":"U","NORAD_CAT_ID":59067,"ELEMENT_SET_NO":999,"REV_AT_EPOCH":10991,"BSTAR":0.00034113831,"MEAN_MOTION_DOT":4.263e-5,"MEAN_MOTION_DDOT":0},{"OBJECT_NAME":"COSMOS 2251 DEB","OBJECT_ID":"1993-036BK","EPOCH":"2026-03-09T19:57:45.204480","MEAN_MOTION":15.2250442,"ECCENTRICITY":0.00171058,"INCLINATION":74.0815,"RA_OF_ASC_NODE":344.9963,"ARG_OF_PERICENTER":285.2465,"MEAN_ANOMALY":74.6843,"EPHEMERIS_TYPE":0,"CLASSIFICATION_TYPE":"U","NORAD_CAT_ID":33818,"ELEMENT_SET_NO":999,"REV_AT_EPOCH":91183,"BSTAR":0.0028725842,"MEAN_MOTION_DOT":0.00067433,"MEAN_MOTION_DDOT":0}]
